EROS C3                 
1 54880U 22179A   26196.90751406  .00002782  00000+0  14929-3 0  9998
2 54880 139.3347 168.9644 0007485 185.6624 174.4099 15.11037757196671
