{"fetched_at":"2026-07-16T06:42:51.900Z","source":"https://celestrak.org/NORAD/elements/gp.php?NAME=EROS&FORMAT=JSON","constellation":"eros","records":[{"OBJECT_NAME":"EROS C3","OBJECT_ID":"2022-179A","EPOCH":"2026-07-15T21:46:49.214784","CLASSIFICATION_TYPE":"U","MEAN_MOTION":15.11037757,"ECCENTRICITY":0.0007485,"INCLINATION":139.3347,"RA_OF_ASC_NODE":168.9644,"ARG_OF_PERICENTER":185.6624,"MEAN_ANOMALY":174.4099,"EPHEMERIS_TYPE":0,"NORAD_CAT_ID":54880,"ELEMENT_SET_NO":999,"REV_AT_EPOCH":19667,"BSTAR":0.00014928871,"MEAN_MOTION_DOT":0.00002782,"MEAN_MOTION_DDOT":0}]}
